{
  "_updated_at": "2026-04-12T04:48:57Z",
  "_source": "Celestrak GP / GitHub Actions auto-update",
  "_update_interval": "daily at UTC 02:00",
  "_warnings": [],
  "satellites": [
    {
      "name": "SES-12",
      "catnr": 43488,
      "orbit": "GEO",
      "line0": "SES-12",
      "line1": "1 43488U 18049A   26101.89602316 -.00000268  00000+0  00000+0 0  9999",
      "line2": "2 43488   0.0273  53.6948 0001409 253.0883 310.8984  1.00270404 28752"
    },
    {
      "name": "SES-14",
      "catnr": 43175,
      "orbit": "GEO",
      "line0": "SES-14",
      "line1": "1 43175U 18012B   26101.86776972 -.00000277  00000+0  00000+0 0  9999",
      "line2": "2 43175   0.0134  96.1602 0000933 289.9135  78.9170  1.00272120  6368"
    },
    {
      "name": "SES-15",
      "catnr": 42709,
      "orbit": "GEO",
      "line0": "SES-15",
      "line1": "1 42709U 17026A   26101.70897603  .00000061  00000+0  00000+0 0  9993",
      "line2": "2 42709   0.0290 323.0569 0000670  66.8722 296.0776  1.00270694  6762"
    },
    {
      "name": "SES-17",
      "catnr": 49332,
      "orbit": "GEO",
      "line0": "SES-17",
      "line1": "1 49332U 21095A   26101.05917700 -.00000271  00000+0  00000+0 0  9996",
      "line2": "2 49332   0.0311  62.3838 0000832 339.7477 111.3601  1.00273252 17183"
    },
    {
      "name": "AMC-9",
      "catnr": 27820,
      "orbit": "GEO",
      "line0": "AMC-9 (GE-12)",
      "line1": "1 27820U 03024A   26101.75917411 -.00000262  00000+0  00000+0 0  9992",
      "line2": "2 27820   7.7543  66.4820 0018156 342.7157 198.3402  0.99034163 83332"
    },
    {
      "name": "NSS-12",
      "catnr": 36032,
      "orbit": "GEO",
      "line0": "NSS-12",
      "line1": "1 36032U 09058A   26101.88848312  .00000073  00000+0  00000+0 0  9996",
      "line2": "2 36032   0.0880  67.5753 0004915 297.4464 211.9321  1.00271622 60253"
    },
    {
      "name": "O3b mPOWER F1",
      "catnr": 54755,
      "orbit": "MEO",
      "line0": "O3B MPOWER F1",
      "line1": "1 54755U 22174A   26099.59313288 -.00000022  00000+0  00000+0 0  9990",
      "line2": "2 54755   0.0618 348.6921 0005688  47.9839 345.2361  5.00114891 61924"
    },
    {
      "name": "O3b mPOWER F2",
      "catnr": 54756,
      "orbit": "MEO",
      "line0": "O3B MPOWER F2",
      "line1": "1 54756U 22174B   26101.74641724 -.00000019  00000+0  00000+0 0  9997",
      "line2": "2 54756   0.0584 345.8682 0005953  33.4743 340.6799  5.00115518 62123"
    },
    {
      "name": "O3b mPOWER F3",
      "catnr": 56368,
      "orbit": "MEO",
      "line0": "O3B MPOWER F3",
      "line1": "1 56368U 23059B   26101.04447680 -.00000020  00000+0  00000+0 0  9991",
      "line2": "2 56368   0.0657   3.8604 0006617  19.7446 336.4251  5.00116769 51364"
    },
    {
      "name": "O3b mPOWER F4",
      "catnr": 56367,
      "orbit": "MEO",
      "line0": "O3B MPOWER F4",
      "line1": "1 56367U 23059A   26101.81074885 -.00000019  00000+0  00000+0 0  9996",
      "line2": "2 56367   0.0646   3.8755 0007110  30.6107 325.5598  5.00116017 55287"
    },
    {
      "name": "O3b mPOWER F5",
      "catnr": 58346,
      "orbit": "MEO",
      "line0": "O3B MPOWER F5",
      "line1": "1 58346U 23175A   26101.74484314 -.00000019  00000+0  00000+0 0  9998",
      "line2": "2 58346   0.0434  10.1480 0004344  21.8897 327.9885  5.00115667 46118"
    },
    {
      "name": "O3b mPOWER F6",
      "catnr": 58347,
      "orbit": "MEO",
      "line0": "O3B MPOWER F6",
      "line1": "1 58347U 23175B   26100.04651441 -.00000022  00000+0  00000+0 0  9992",
      "line2": "2 58347   0.0505   5.5660 0004830   3.3008 351.1412  5.00116380 44931"
    }
  ]
}